[{"OBJECT_NAME":"GEESAT-5 04","OBJECT_ID":"2025-201D","EPOCH":"2026-03-09T16:43:55.713504","MEAN_MOTION":14.83246281,"ECCENTRICITY":0.00110249,"INCLINATION":49.9844,"RA_OF_ASC_NODE":141.1656,"ARG_OF_PERICENTER":244.2414,"MEAN_ANOMALY":115.7387,"EPHEMERIS_TYPE":0,"CLASSIFICATION_TYPE":"U","NORAD_CAT_ID":65553,"ELEMENT_SET_NO":999,"REV_AT_EPOCH":2701,"BSTAR":0.00027420324,"MEAN_MOTION_DOT":2.041e-5,"MEAN_MOTION_DDOT":0},{"OBJECT_NAME":"SL-14 DEB","OBJECT_ID":"1987-068CC","EPOCH":"2026-03-09T06:53:52.983456","MEAN_MOTION":14.76895851,"ECCENTRICITY":0.00376949,"INCLINATION":82.1453,"RA_OF_ASC_NODE":169.61,"ARG_OF_PERICENTER":211.124,"MEAN_ANOMALY":148.7738,"EPHEMERIS_TYPE":0,"CLASSIFICATION_TYPE":"U","NORAD_CAT_ID":25454,"ELEMENT_SET_NO":999,"REV_AT_EPOCH":62692,"BSTAR":0.0083447583,"MEAN_MOTION_DOT":0.00059818,"MEAN_MOTION_DDOT":0}]
